[{"OBJECT_ID":"2002-030A","OBJECT_NAME":"GALAXY 3C","NORAD_CAT_ID":"27445","OBJECT_TYPE":"PAYLOAD","PERIOD":"1436.105","INCLINATION":"0.0082","APOGEE":"35793.620","PERIGEE":"35779.899","ECCENTRICITY":"0.0001627","MEAN_MOTION":"1.00271203","TLE_LINE1":"1 27445U 02030A   16239.52678022 -.00000180  00000-0  00000+0 0  9999","TLE_LINE2":"2 27445   0.0082 118.3857 0001627 341.3158 330.0746  1.00271203 52048","LAUNCH_DATE":"2002-06-15","LAUNCH_SITE":"SEA LAUNCH","OWNER":"UNITED STATES OF AMERICA","ORBIT_TYPE":"Geosynchronous","OPERATIONAL_STATUS":"Operational","satInfo":{"lng":-104.56393376612648,"lat":-0.5746500739258675,"elevation":-9.13497035524344,"azimuth":59.56393376612648,"range":42703.06197090012,"height":35785.44442488617,"velocity":3.0749474152453087},"x":-251,"y":63,"dx":-0.7732267692396031,"dy":-2.9761421286381955,"maxAlt":256,"minAlt":256},{"OBJECT_ID":"2002-035A","OBJECT_NAME":"EUTE 5 WEST A (STELLAT5)","NORAD_CAT_ID":"27460","OBJECT_TYPE":"PAYLOAD","PERIOD":"1436.112","INCLINATION":"0.0512","APOGEE":"35806.850","PERIGEE":"35766.945","ECCENTRICITY":"0.0004732","MEAN_MOTION":"1.00270711","TLE_LINE1":"1 27460U 02035A   16239.08405093 -.00000070  00000-0  00000+0 0  9996","TLE_LINE2":"2 27460   0.0512 321.6063 0004732 201.1467 197.2562  1.00270711 51835","LAUNCH_DATE":"2002-07-05","LAUNCH_SITE":"FRENCH GUIANA","OWNER":"EUROPEAN TELECOMMUNICATIONS SATELLITE ORGANIZATION (EUTELSAT)","ORBIT_TYPE":"Geosynchronous","OPERATIONAL_STATUS":"Operational","satInfo":{"lng":47.71633873527402,"lat":-1.3817706299852923,"elevation":-9.917675742095957,"azimuth":267.283661264726,"range":42809.946341147304,"height":35804.32145925258,"velocity":3.0744617489663484},"x":189,"y":-175,"dx":2.0685026899175045,"dy":2.2745574663352133,"maxAlt":256,"minAlt":256},{"OBJECT_ID":"2002-038A","OBJECT_NAME":"EUTE 8 WEST C (HB 6)","NORAD_CAT_ID":"27499","OBJECT_TYPE":"PAYLOAD","PERIOD":"1449.739","INCLINATION":"0.1661","APOGEE":"36063.630","PERIGEE":"36042.813","ECCENTRICITY":"0.0002453","MEAN_MOTION":"0.99328159","TLE_LINE1":"1 27499U 02038A   16239.04767520 -.00000127  00000-0  00000+0 0  9996","TLE_LINE2":"2 27499   0.1661  83.0253 0002453 108.9497 168.0124  0.99328159 51307","LAUNCH_DATE":"2002-08-21","LAUNCH_SITE":"AIR FORCE EASTERN TEST RANGE","OWNER":"EUROPEAN TELECOMMUNICATIONS SATELLITE ORGANIZATION (EUTELSAT)","ORBIT_TYPE":"Geosynchronous","OPERATIONAL_STATUS":"Nonoperational","satInfo":{"lng":48.1966002779848,"lat":0.3325602462667441,"elevation":-8.19741119435134,"azimuth":266.8033997220152,"range":42859.85670642966,"height":36044.520471359254,"velocity":3.06568223500341},"x":192,"y":-174,"dx":2.0435123563340087,"dy":2.2852712783224947,"maxAlt":258,"minAlt":258},{"OBJECT_ID":"2002-039A","OBJECT_NAME":"ECHOSTAR 8","NORAD_CAT_ID":"27501","OBJECT_TYPE":"PAYLOAD","PERIOD":"1436.108","INCLINATION":"0.469","APOGEE":"35799.794","PERIGEE":"35773.863","ECCENTRICITY":"0.0003075","MEAN_MOTION":"1.00270958","TLE_LINE1":"1 27501U 02039A   16238.35728880 -.00000268  00000-0  00000+0 0  9996","TLE_LINE2":"2 27501   0.4690  89.8126 0003075  74.0081 221.9483  1.00270958 51350","LAUNCH_DATE":"2002-08-22","LAUNCH_SITE":"TYURATAM MISSILE AND SPACE COMPLEX","OWNER":"UNITED STATES OF AMERICA","ORBIT_TYPE":"Geosynchronous","OPERATIONAL_STATUS":"Operational","satInfo":{"lng":-95.18869922459152,"lat":1.068954246724262,"elevation":-7.52577377918083,"azimuth":50.18869922459152,"range":42536.31393019565,"height":35799.10384008849,"velocity":3.0742457588997762},"x":-258,"y":22,"dx":-0.27802296424125184,"dy":-3.061648284416054,"maxAlt":256,"minAlt":256},{"OBJECT_ID":"2002-040A","OBJECT_NAME":"EUTE 12 WEST A (AB 1)","NORAD_CAT_ID":"27508","OBJECT_TYPE":"PAYLOAD","PERIOD":"1436.125","INCLINATION":"0.0686","APOGEE":"35795.418","PERIGEE":"35778.898","ECCENTRICITY":"0.0001959","MEAN_MOTION":"1.00269782","TLE_LINE1":"1 27508U 02040A   16239.16987812 -.00000273  00000-0  00000+0 0  9993","TLE_LINE2":"2 27508   0.0686 358.3349 0001959 185.2218 176.4348  1.00269782 51330","LAUNCH_DATE":"2002-08-28","LAUNCH_SITE":"FRENCH GUIANA","OWNER":"EUROPEAN TELECOMMUNICATIONS SATELLITE ORGANIZATION (EUTELSAT)","ORBIT_TYPE":"Geosynchronous","OPERATIONAL_STATUS":"Operational","satInfo":{"lng":-41.167490553312504,"lat":0.040655480713936175,"elevation":-8.536878100884868,"azimuth":356.16749055331246,"range":42623.21236073497,"height":35772.84301012535,"velocity":3.0753676850323823},"x":-171,"y":-195,"dx":2.3151015068497833,"dy":-2.024399024679497,"maxAlt":256,"minAlt":256},{"OBJECT_ID":"2002-041A","OBJECT_NAME":"INTELSAT 906","NORAD_CAT_ID":"27513","OBJECT_TYPE":"PAYLOAD","PERIOD":"1436.093","INCLINATION":"0.0499","APOGEE":"35798.568","PERIGEE":"35774.475","ECCENTRICITY":"0.0002857","MEAN_MOTION":"1.00272053","TLE_LINE1":"1 27513U 02041A   16238.94383203 -.00000013 +00000-0 +00000-0 0  9992","TLE_LINE2":"2 27513 000.0499 270.4908 0002857 286.1138 181.9385 01.00272053051116","LAUNCH_DATE":"2002-09-06","LAUNCH_SITE":"FRENCH GUIANA","OWNER":"INTERNATIONAL TELECOMMUNICATIONS SATELLITE ORGANIZATION (INTELSAT)","ORBIT_TYPE":"Geosynchronous","OPERATIONAL_STATUS":"Operational","satInfo":{"lng":86.08780312118384,"lat":0.8884980412455377,"elevation":-7.706218129486044,"azimuth":228.91219687881616,"range":42537.76131212865,"height":35780.514810124165,"velocity":3.0751566727878012},"x":256,"y":-19,"dx":0.20981078037555792,"dy":3.0679908732963237,"maxAlt":256,"minAlt":256},{"OBJECT_ID":"2002-044A","OBJECT_NAME":"HISPASAT 1D","NORAD_CAT_ID":"27528","OBJECT_TYPE":"PAYLOAD","PERIOD":"1436.114","INCLINATION":"0.0544","APOGEE":"35796.897","PERIGEE":"35776.970","ECCENTRICITY":"0.0002363","MEAN_MOTION":"1.00270582","TLE_LINE1":"1 27528U 02044A   16238.81613514 -.00000244  00000-0  00000+0 0  9993","TLE_LINE2":"2 27528   0.0544 301.9971 0002363 245.3436  50.9588  1.00270582 51028","LAUNCH_DATE":"2002-09-18","LAUNCH_SITE":"AIR FORCE EASTERN TEST RANGE","OWNER":"SPAIN","ORBIT_TYPE":"Geosynchronous","OPERATIONAL_STATUS":"Operational","satInfo":{"lng":-48.11641984518167,"lat":-1.2007045903262512,"elevation":-9.74895746476584,"azimuth":3.116419845181642,"range":42752.51932634427,"height":35766.24363774889,"velocity":3.0755794663053733},"x":-193,"y":-173,"dx":2.053315973502834,"dy":-2.289777842175383,"maxAlt":256,"minAlt":256},{"OBJECT_ID":"2002-051A","OBJECT_NAME":"EUTE 25C (EUTE W5)","NORAD_CAT_ID":"27554","OBJECT_TYPE":"PAYLOAD","PERIOD":"1435.691","INCLINATION":"0.7679","APOGEE":"35819.702","PERIGEE":"35737.606","ECCENTRICITY":"0.0009737","MEAN_MOTION":"1.00300124","TLE_LINE1":"1 27554U 02051A   16239.42919880 -.00000380  00000-0  00000+0 0  9994","TLE_LINE2":"2 27554   0.7679  89.6988 0009737 207.0088 318.5199  1.00300124 50443","LAUNCH_DATE":"2002-11-20","LAUNCH_SITE":"AIR FORCE EASTERN TEST RANGE","OWNER":"EUROPEAN TELECOMMUNICATIONS SATELLITE ORGANIZATION (EUTELSAT)","ORBIT_TYPE":"Geosynchronous","OPERATIONAL_STATUS":"Nonoperational","satInfo":{"lng":123.01249157416095,"lat":-2.6988491766422347,"elevation":-11.206885078249645,"azimuth":191.98750842583902,"range":42907.35681336172,"height":35757.74303584268,"velocity":3.0771831804123435},"x":215,"y":139,"dx":-1.676516689361975,"dy":2.5803775142609244,"maxAlt":257,"minAlt":256},{"OBJECT_ID":"2002-057A","OBJECT_NAME":"NSS 6","NORAD_CAT_ID":"27603","OBJECT_TYPE":"PAYLOAD","PERIOD":"1436.154","INCLINATION":"0.0199","APOGEE":"35796.899","PERIGEE":"35778.540","ECCENTRICITY":"0.0002177","MEAN_MOTION":"1.00267778","TLE_LINE1":"1 27603U 02057A   16238.91824346 -.00000297 +00000-0 +00000-0 0  9998","TLE_LINE2":"2 27603 000.0199 124.8491 0002177 083.8884 191.4202 01.00267778050174","LAUNCH_DATE":"2002-12-17","LAUNCH_SITE":"FRENCH GUIANA","OWNER":"SOCIÉTÉ EUROPÉENNE DES SATELLITES","ORBIT_TYPE":"Geosynchronous","OPERATIONAL_STATUS":"Operational","satInfo":{"lng":55.171461079099664,"lat":1.3562116220667193,"elevation":-7.248807710535315,"azimuth":259.8285389209003,"range":42482.74593604381,"height":35776.86571888599,"velocity":3.0753910618081437},"x":210,"y":-149,"dx":1.7564250617113806,"dy":2.5244803793338533,"maxAlt":256,"minAlt":256},{"OBJECT_ID":"2002-062A","OBJECT_NAME":"NIMIQ 2","NORAD_CAT_ID":"27632","OBJECT_TYPE":"PAYLOAD","PERIOD":"1436.064","INCLINATION":"1.3724","APOGEE":"35799.026","PERIGEE":"35772.884","ECCENTRICITY":"0.00031","MEAN_MOTION":"1.00274072","TLE_LINE1":"1 27632U 02062A   16238.24077372 +.00000111 +00000-0 +00000-0 0  9995","TLE_LINE2":"2 27632 001.3724 083.7594 0003100 020.8984 339.6488 01.00274072008282","LAUNCH_DATE":"2002-12-29","LAUNCH_SITE":"TYURATAM MISSILE AND SPACE COMPLEX","OWNER":"CANADA","ORBIT_TYPE":"Geosynchronous","OPERATIONAL_STATUS":"Operational","satInfo":{"lng":54.69113904997248,"lat":0.09442640052160521,"elevation":-8.485309420557913,"azimuth":260.3088609500275,"range":42612.575190802614,"height":35768.04657431143,"velocity":3.075121588735761},"x":209,"y":-150,"dx":1.7773705701713114,"dy":2.5094474773937105,"maxAlt":256,"minAlt":256},{"OBJECT_ID":"2003-007A","OBJECT_NAME":"INTELSAT 907","NORAD_CAT_ID":"27683","OBJECT_TYPE":"PAYLOAD","PERIOD":"1436.090","INCLINATION":"0.0291","APOGEE":"35798.049","PERIGEE":"35774.909","ECCENTRICITY":"0.0002744","MEAN_MOTION":"1.00272205","TLE_LINE1":"1 27683U 03007A   16239.14634732 -.00000230  00000-0  00000+0 0  9992","TLE_LINE2":"2 27683   0.0291 254.5025 0002744 278.7485 186.7456  1.00272205 49471","LAUNCH_DATE":"2003-02-15","LAUNCH_SITE":"FRENCH GUIANA","OWNER":"INTERNATIONAL TELECOMMUNICATIONS SATELLITE ORGANIZATION (INTELSAT)","ORBIT_TYPE":"Geosynchronous","OPERATIONAL_STATUS":"Operational","satInfo":{"lng":-55.819835179757646,"lat":-2.1182371480079616,"elevation":-10.642628925619352,"azimuth":10.81983517975762,"range":42846.808784741836,"height":35760.39514684986,"velocity":3.075851040352025},"x":-215,"y":-146,"dx":1.7280039417223676,"dy":-2.544575013597869,"maxAlt":256,"minAlt":256}]